{"type":"FeatureCollection","features":[{"type":"Feature","properties":{"Name":"Ширээ нуур","NameEnglish":"Shiree (Table) Lake","SongType":"Long Song","LyricsMgl":"Ширээ нуурын захаар\nЗүлэг яагаад ургаа вэ\nЦэрвүү холын чамтайгаа\nСэтгэл яагаад дасах вэ\n\nЗэгст нуурын захаар\nЖимс яагаад ургаа вэ\nЦэгцхэн зантай чамтайгаа\nСэтгэл яагаад дасаа вэ","LyricsMongolBichig":null,"LyricsEnglish":null,"Aimag":"Өвөрхангай","Sum":null,"Subject":"Love","EthnicGroup":null,"VideoURL":"https://www.youtube.com/watch?v=zJdx517iVLI","ABC":"X: 1\nT: Ширээ нуур Shiree Nuur \nM:2/4\nL: 1/8\nR: urtiin duu\nK: Ebmaj\nO: Mongolia\nG3F/2E/2F/2|B2G2|FGC2|FE3\nw:Ширээ нуур-ын_ за-____хаар_\nB,3C|EFG3|G,C3|EFG2|B2E2|G2C2|\nw:Зү-лэг___яа-гаад ур-гаа____ вэ\nG3F/2E/2F/2|B2G2|F/2G/2C3|FE3\nw:Цэрвүү холын__ чам-тай-__гаа\nB,3C|EFG3|G,C3|EFG2|B2E2|G2C2|\nw:Сэт_гэл__ яа-гаад____ да-сах вэ\n%\nW:Ширээ нуурын захаар\nW:Зүлэг яагаад ургаа вэ\nW:Цэрвүү холын чамтайгаа\nW:Сэтгэл яагаад дасах вэ\nW:\nW:Зэгст нуурын захаар\nW:Жимс яагаад ургаа вэ\nW:Цэгцхэн зантай чамтайгаа\nW:Сэтгэл яагаад дасаа вэ\nW:\nW:Title (English): Shiree Lake\nW:Lyrics Source: Х. Сампилдэндэв, К. H. Яцковская  - Монгол ардын уртын дуу (1984)\nW:Taken from Aрдын уртын дуу (1959).\nW:Melody Source: МУУГЗ Солийн Цоодол\nW:Geographic Note: Refers to Shireet Tsagaan Nuur, Uvurhangai Province\nW:Digitized by Katie Bunge, 2026.","Source":"Mongol Ardiin Urtiin Duu (1984)","Notes":"https://github.com/katiebunge/meandernotes/blob/main/ardiin-duu/pdf/ShireeNuur.pdf","Midi":"https://github.com/katiebunge/meandernotes/blob/main/ardiin-duu/audio/-Shiree-Nuur.midi"},"geometry":{"type":"Point","coordinates":[103.915032,47.154368]}},{"type":"Feature","properties":{"Name":"Сэрээ улаан тайлаг","NameEnglish":"The young red camel with a forked nose","SongType":"Short Song","LyricsMgl":"1. Сэрээ улаан тайлаг\nсэгэр сэгэр гэнэ л.\nсэнжтэй мөнгөн бэл нь \nГялар, гялар гэнэ л. \n\n2. Өклээ бөхтэй улаан нь\nӨөктээгээ эргээд байнаа \nӨнгөтэй мөнгөн зэрзээ нь\nӨнөөх найзын гэрээс.\n\n3. Хар манхан тайлаг нь\nХамар сунгаад байнаа \nХонхтой мөнгөн сийк нь\nХалх цокоод байнаа. \n\n4. Ганган бөхтэй улаан нь\nГасаан эргээд байнаа \nГарт нь байгаа билзиг нь\nГанцхан түүний гэрээс.","LyricsMongolBichig":null,"LyricsEnglish":null,"Aimag":"Хөвд","Sum":null,"Subject":"Camel","EthnicGroup":"Zakhchin","VideoURL":null,"ABC":"X: 1\nT: Сэрээ улаан тайлаг Seree ulaan tailag\nM:2/4\nL: 1/8\nR: ardiin duu\nK: Dbmaj\nO: Mongolia\nFFFA|B2e2|\nw:Сэ-рээ у-лаан тай-лаг\nd/2e/2fed|E2A2|FF/2E/2DE|\nw:сэ -гэр сэ-гэр  гэ-нээ сэнж-тэй_ мөн-гөн \nF2B2|AdBA|B,2B,2||\nw:бэл нь Гя-лар гя-лар гэ-нээ\n%\nW:1. Сэрээ улаан тайлаг\nW:сэгэр сэгэр гэнэ л.\nW:сэнжтэй мөнгөн бэл нь \nW:Гялар, гялар гэнэ л. \nW:\nW:2. Өклээ бөхтэй улаан нь\nW:Өөктээгээ эргээд байнаа \nW:Өнгөтэй мөнгөн зэрзээ нь\nW:Өнөөх найзын гэрээс.\nW:\nW:3. Хар манхан тайлаг нь\nW:Хамар сунгаад байнаа \nW:Хонхтой мөнгөн сийк нь\nW:Халх цокоод байнаа. \nW:\nW:4. Ганган бөхтэй улаан нь\nW:Гасаан эргээд байнаа \nW:Гарт нь байгаа билзиг нь\nW:Ганцхан түүний гэрээс.\nW:\nW:Title (English): The young red camel with a forked nose\nW:Source: Х. Сампилдэндэв, Арган гурван хүлгийн дуун (1987).","Source":"Song of the Thirteen Steeds (1987)","Notes":"https://github.com/katiebunge/meandernotes/blob/main/ardiin-duu/pdf/SereeUlaanTailag.pdf","Midi":"https://github.com/katiebunge/meandernotes/blob/main/ardiin-duu/audio/-Seree-ulaan-tailag.midi"},"geometry":{"type":"Point","coordinates":[91.640052,48.00842]}}]}